[{"OBJECT_NAME":"ONEWEB-0561","OBJECT_ID":"2023-068A","EPOCH":"2026-03-06T04:02:41.276256","MEAN_MOTION":13.20772658,"ECCENTRICITY":0.0001151,"INCLINATION":87.9171,"RA_OF_ASC_NODE":295.013,"ARG_OF_PERICENTER":88.3015,"MEAN_ANOMALY":271.825,"EPHEMERIS_TYPE":0,"CLASSIFICATION_TYPE":"U","NORAD_CAT_ID":56710,"ELEMENT_SET_NO":999,"REV_AT_EPOCH":13590,"BSTAR":0.00018862992,"MEAN_MOTION_DOT":9.0e-7,"MEAN_MOTION_DDOT":0},{"OBJECT_NAME":"ONEWEB-0668","OBJECT_ID":"2023-068B","EPOCH":"2026-03-06T01:45:11.952000","MEAN_MOTION":13.16593833,"ECCENTRICITY":0.00018208,"INCLINATION":87.901,"RA_OF_ASC_NODE":249.2761,"ARG_OF_PERICENTER":78.665,"MEAN_ANOMALY":281.4685,"EPHEMERIS_TYPE":0,"CLASSIFICATION_TYPE":"U","NORAD_CAT_ID":56711,"ELEMENT_SET_NO":999,"REV_AT_EPOCH":13821,"BSTAR":0.00029031437,"MEAN_MOTION_DOT":1.24e-6,"MEAN_MOTION_DDOT":0},{"OBJECT_NAME":"ONEWEB-0676","OBJECT_ID":"2023-068C","EPOCH":"2026-03-06T05:35:28.354848","MEAN_MOTION":13.16594322,"ECCENTRICITY":0.00012696,"INCLINATION":87.9,"RA_OF_ASC_NODE":249.2573,"ARG_OF_PERICENTER":94.3581,"MEAN_ANOMALY":265.7695,"EPHEMERIS_TYPE":0,"CLASSIFICATION_TYPE":"U","NORAD_CAT_ID":56712,"ELEMENT_SET_NO":999,"REV_AT_EPOCH":13815,"BSTAR":-3.4736439e-5,"MEAN_MOTION_DOT":0,"MEAN_MOTION_DDOT":0},{"OBJECT_NAME":"ONEWEB-0677","OBJECT_ID":"2023-068D","EPOCH":"2026-03-06T03:46:46.739424","MEAN_MOTION":13.2077245,"ECCENTRICITY":0.00015519,"INCLINATION":87.9174,"RA_OF_ASC_NODE":295.0076,"ARG_OF_PERICENTER":76.8355,"MEAN_ANOMALY":283.2952,"EPHEMERIS_TYPE":0,"CLASSIFICATION_TYPE":"U","NORAD_CAT_ID":56713,"ELEMENT_SET_NO":999,"REV_AT_EPOCH":13620,"BSTAR":0.00012972571,"MEAN_MOTION_DOT":6.6e-7,"MEAN_MOTION_DDOT":0},{"OBJECT_NAME":"ONEWEB-0678","OBJECT_ID":"2023-068E","EPOCH":"2026-03-06T06:06:22.115232","MEAN_MOTION":13.15547482,"ECCENTRICITY":0.00015774,"INCLINATION":87.8948,"RA_OF_ASC_NODE":279.7398,"ARG_OF_PERICENTER":98.8605,"MEAN_ANOMALY":261.2704,"EPHEMERIS_TYPE":0,"CLASSIFICATION_TYPE":"U","NORAD_CAT_ID":56714,"ELEMENT_SET_NO":999,"REV_AT_EPOCH":13575,"BSTAR":0.00012051786,"MEAN_MOTION_DOT":5.8e-7,"MEAN_MOTION_DDOT":0},{"OBJECT_NAME":"ONEWEB-0679","OBJECT_ID":"2023-068F","EPOCH":"2026-03-05T23:07:53.228064","MEAN_MOTION":13.1659352,"ECCENTRICITY":0.00014505,"INCLINATION":87.901,"RA_OF_ASC_NODE":249.2966,"ARG_OF_PERICENTER":70.9369,"MEAN_ANOMALY":289.1919,"EPHEMERIS_TYPE":0,"CLASSIFICATION_TYPE":"U","NORAD_CAT_ID":56715,"ELEMENT_SET_NO":999,"REV_AT_EPOCH":13814,"BSTAR":3.3543577e-5,"MEAN_MOTION_DOT":2.6e-7,"MEAN_MOTION_DDOT":0},{"OBJECT_NAME":"ONEWEB-0680","OBJECT_ID":"2023-068G","EPOCH":"2026-03-06T07:13:24.443904","MEAN_MOTION":13.21825808,"ECCENTRICITY":0.0001731,"INCLINATION":87.9175,"RA_OF_ASC_NODE":264.4802,"ARG_OF_PERICENTER":73.5829,"MEAN_ANOMALY":286.5495,"EPHEMERIS_TYPE":0,"CLASSIFICATION_TYPE":"U","NORAD_CAT_ID":56716,"ELEMENT_SET_NO":999,"REV_AT_EPOCH":13750,"BSTAR":0.00075383827,"MEAN_MOTION_DOT":3.24e-6,"MEAN_MOTION_DDOT":0},{"OBJECT_NAME":"ONEWEB-0681","OBJECT_ID":"2023-068H","EPOCH":"2026-03-06T01:16:45.685920","MEAN_MOTION":13.21825281,"ECCENTRICITY":5.689e-5,"INCLINATION":87.9164,"RA_OF_ASC_NODE":264.5386,"ARG_OF_PERICENTER":89.4804,"MEAN_ANOMALY":270.6395,"EPHEMERIS_TYPE":0,"CLASSIFICATION_TYPE":"U","NORAD_CAT_ID":56717,"ELEMENT_SET_NO":999,"REV_AT_EPOCH":13746,"BSTAR":9.4972388e-5,"MEAN_MOTION_DOT":5.2e-7,"MEAN_MOTION_DDOT":0},{"OBJECT_NAME":"ONEWEB-0682","OBJECT_ID":"2023-068J","EPOCH":"2026-03-06T03:04:58.702944","MEAN_MOTION":13.15547215,"ECCENTRICITY":0.00017511,"INCLINATION":87.8942,"RA_OF_ASC_NODE":279.7721,"ARG_OF_PERICENTER":70.9812,"MEAN_ANOMALY":289.1508,"EPHEMERIS_TYPE":0,"CLASSIFICATION_TYPE":"U","NORAD_CAT_ID":56718,"ELEMENT_SET_NO":999,"REV_AT_EPOCH":13590,"BSTAR":0.00041434825,"MEAN_MOTION_DOT":1.69e-6,"MEAN_MOTION_DDOT":0},{"OBJECT_NAME":"ONEWEB-0683","OBJECT_ID":"2023-068K","EPOCH":"2026-03-06T07:14:49.322400","MEAN_MOTION":13.15547603,"ECCENTRICITY":0.0001751,"INCLINATION":87.8953,"RA_OF_ASC_NODE":279.7299,"ARG_OF_PERICENTER":80.4199,"MEAN_ANOMALY":279.7129,"EPHEMERIS_TYPE":0,"CLASSIFICATION_TYPE":"U","NORAD_CAT_ID":56719,"ELEMENT_SET_NO":999,"REV_AT_EPOCH":13589,"BSTAR":-0.00018937649,"MEAN_MOTION_DOT":-5.8e-7,"MEAN_MOTION_DDOT":0},{"OBJECT_NAME":"ONEWEB-0684","OBJECT_ID":"2023-068L","EPOCH":"2026-03-06T03:47:11.176800","MEAN_MOTION":13.15547022,"ECCENTRICITY":0.00025288,"INCLINATION":87.895,"RA_OF_ASC_NODE":279.7514,"ARG_OF_PERICENTER":116.9878,"MEAN_ANOMALY":243.1511,"EPHEMERIS_TYPE":0,"CLASSIFICATION_TYPE":"U","NORAD_CAT_ID":56720,"ELEMENT_SET_NO":999,"REV_AT_EPOCH":13570,"BSTAR":-0.00022006935,"MEAN_MOTION_DOT":-7.0e-7,"MEAN_MOTION_DDOT":0},{"OBJECT_NAME":"ONEWEB-0686","OBJECT_ID":"2023-068M","EPOCH":"2026-03-06T05:28:37.475328","MEAN_MOTION":13.16594701,"ECCENTRICITY":0.00018992,"INCLINATION":87.8989,"RA_OF_ASC_NODE":249.2824,"ARG_OF_PERICENTER":92.7463,"MEAN_ANOMALY":267.3885,"EPHEMERIS_TYPE":0,"CLASSIFICATION_TYPE":"U","NORAD_CAT_ID":56721,"ELEMENT_SET_NO":999,"REV_AT_EPOCH":13816,"BSTAR":0.00030188267,"MEAN_MOTION_DOT":1.28e-6,"MEAN_MOTION_DDOT":0},{"OBJECT_NAME":"ONEWEB-0694","OBJECT_ID":"2023-068N","EPOCH":"2026-03-06T00:09:26.858304","MEAN_MOTION":13.16593363,"ECCENTRICITY":0.00018768,"INCLINATION":87.9015,"RA_OF_ASC_NODE":249.2722,"ARG_OF_PERICENTER":82.4107,"MEAN_ANOMALY":277.7237,"EPHEMERIS_TYPE":0,"CLASSIFICATION_TYPE":"U","NORAD_CAT_ID":56722,"ELEMENT_SET_NO":999,"REV_AT_EPOCH":13819,"BSTAR":-0.00031341925,"MEAN_MOTION_DOT":-1.07e-6,"MEAN_MOTION_DDOT":0},{"OBJECT_NAME":"ONEWEB-0696","OBJECT_ID":"2023-068P","EPOCH":"2026-03-06T00:56:03.334272","MEAN_MOTION":13.15549168,"ECCENTRICITY":0.00016032,"INCLINATION":87.8941,"RA_OF_ASC_NODE":279.8208,"ARG_OF_PERICENTER":104.1168,"MEAN_ANOMALY":256.014,"EPHEMERIS_TYPE":0,"CLASSIFICATION_TYPE":"U","NORAD_CAT_ID":56723,"ELEMENT_SET_NO":999,"REV_AT_EPOCH":13580,"BSTAR":0.00044192695,"MEAN_MOTION_DOT":1.79e-6,"MEAN_MOTION_DDOT":0},{"OBJECT_NAME":"ONEWEB-0703","OBJECT_ID":"2023-068Q","EPOCH":"2026-03-06T01:09:44.536032","MEAN_MOTION":13.15547402,"ECCENTRICITY":0.0001383,"INCLINATION":87.8941,"RA_OF_ASC_NODE":279.7999,"ARG_OF_PERICENTER":128.7941,"MEAN_ANOMALY":231.3313,"EPHEMERIS_TYPE":0,"CLASSIFICATION_TYPE":"U","NORAD_CAT_ID":56724,"ELEMENT_SET_NO":999,"REV_AT_EPOCH":13569,"BSTAR":0.00040895754,"MEAN_MOTION_DOT":1.67e-6,"MEAN_MOTION_DDOT":0},{"OBJECT_NAME":"ONEWEB-0721","OBJECT_ID":"2023-068R","EPOCH":"2026-03-06T04:01:11.409888","MEAN_MOTION":13.22462284,"ECCENTRICITY":0.00019051,"INCLINATION":86.6766,"RA_OF_ASC_NODE":118.4116,"ARG_OF_PERICENTER":100.1051,"MEAN_ANOMALY":260.0297,"EPHEMERIS_TYPE":0,"CLASSIFICATION_TYPE":"U","NORAD_CAT_ID":56725,"ELEMENT_SET_NO":999,"REV_AT_EPOCH":14432,"BSTAR":0.00012991852,"MEAN_MOTION_DOT":6.9e-7,"MEAN_MOTION_DDOT":0},{"OBJECT_NAME":"ONEWEB-0015","OBJECT_ID":"2024-188A","EPOCH":"2026-03-06T05:34:51.132000","MEAN_MOTION":13.11416375,"ECCENTRICITY":0.00015089,"INCLINATION":87.8852,"RA_OF_ASC_NODE":41.5662,"ARG_OF_PERICENTER":67.2449,"MEAN_ANOMALY":292.8838,"EPHEMERIS_TYPE":0,"CLASSIFICATION_TYPE":"U","NORAD_CAT_ID":61594,"ELEMENT_SET_NO":999,"REV_AT_EPOCH":7096,"BSTAR":0.0013899874,"MEAN_MOTION_DOT":5.05e-6,"MEAN_MOTION_DDOT":0}]
