ONEWEB-0561             
1 56710U 23068A   26065.16853329  .00000090  00000+0  18863-3 0  9991
2 56710  87.9171 295.0130 0001151  88.3015 271.8250 13.20772658135901
ONEWEB-0668             
1 56711U 23068B   26065.07305500  .00000124  00000+0  29031-3 0  9992
2 56711  87.9010 249.2761 0001820  78.6650 281.4685 13.16593833138212
ONEWEB-0676             
1 56712U 23068C   26065.23296707  .00000000  00000+0 -34736-4 0  9992
2 56712  87.9000 249.2573 0001269  94.3581 265.7695 13.16594322138151
ONEWEB-0677             
1 56713U 23068D   26065.15748541  .00000066  00000+0  12973-3 0  9991
2 56713  87.9174 295.0076 0001551  76.8355 283.2952 13.20772450136209
ONEWEB-0678             
1 56714U 23068E   26065.25442263  .00000058  00000+0  12052-3 0  9994
2 56714  87.8948 279.7398 0001577  98.8605 261.2704 13.15547482135753
ONEWEB-0679             
1 56715U 23068F   26064.96381051  .00000026  00000+0  33544-4 0  9994
2 56715  87.9010 249.2966 0001450  70.9369 289.1919 13.16593520138144
ONEWEB-0680             
1 56716U 23068G   26065.30097736  .00000324  00000+0  75384-3 0  9996
2 56716  87.9175 264.4802 0001731  73.5829 286.5495 13.21825808137509
ONEWEB-0681             
1 56717U 23068H   26065.05330655  .00000052  00000+0  94972-4 0  9992
2 56717  87.9164 264.5386 0000568  89.4804 270.6395 13.21825281137465
ONEWEB-0682             
1 56718U 23068J   26065.12845721  .00000169  00000+0  41435-3 0  9990
2 56718  87.8942 279.7721 0001751  70.9812 289.1508 13.15547215135908
ONEWEB-0683             
1 56719U 23068K   26065.30195975 -.00000058  00000+0 -18938-3 0  9991
2 56719  87.8953 279.7299 0001751  80.4199 279.7129 13.15547603135898
ONEWEB-0684             
1 56720U 23068L   26065.15776825 -.00000070  00000+0 -22007-3 0  9991
2 56720  87.8950 279.7514 0002528 116.9878 243.1511 13.15547022135704
ONEWEB-0686             
1 56721U 23068M   26065.22821152  .00000128  00000+0  30188-3 0  9995
2 56721  87.8989 249.2824 0001899  92.7463 267.3885 13.16594701138166
ONEWEB-0694             
1 56722U 23068N   26065.00656086 -.00000107  00000+0 -31342-3 0  9996
2 56722  87.9015 249.2722 0001876  82.4107 277.7237 13.16593363138193
ONEWEB-0696             
1 56723U 23068P   26065.03892748  .00000179  00000+0  44193-3 0  9992
2 56723  87.8941 279.8208 0001603 104.1168 256.0140 13.15549168135807
ONEWEB-0703             
1 56724U 23068Q   26065.04843213  .00000167  00000+0  40896-3 0  9990
2 56724  87.8941 279.7999 0001383 128.7941 231.3313 13.15547402135694
ONEWEB-0721             
1 56725U 23068R   26065.16749317  .00000069  00000+0  12992-3 0  9991
2 56725  86.6766 118.4116 0001905 100.1051 260.0297 13.22462284144325
ONEWEB-0015             
1 61594U 24188A   26065.23253625  .00000505  00000+0  13900-2 0  9999
2 61594  87.8852  41.5662 0001508  67.2449 292.8838 13.11416375 70969
